{
  "type": "FeatureCollection",
  "features": [
    {
      "type": "Feature",
      "properties": {
        "norad_id": 66541,
        "name": "STARLINK-35796",
        "group": "last-30-days",
        "lat": 31.273630690063325,
        "lon": -143.34932960998444,
        "alt_km": 395.75471869625017,
        "timestamp": "2025-12-08T17:43:03.632345+00:00",
        "meta_object_name": "STARLINK-35796",
        "meta_object_id": "2025-265AB",
        "meta_epoch": "2025-12-08T06:00:02.999808",
        "meta_mean_motion": 15.57925963,
        "meta_eccentricity": 0.00012775,
        "meta_inclination": 43.0007,
        "meta_ra_of_asc_node": 80.2103,
        "meta_arg_of_pericenter": 263.8519,
        "meta_mean_anomaly": 7.0074,
        "meta_ephemeris_type": 0,
        "meta_classification_type": "U",
        "meta_norad_cat_id": 66541,
        "meta_element_set_no": 999,
        "meta_rev_at_epoch": 427,
        "meta_bstar": -0.029472086,
        "meta_mean_motion_dot": -0.01986294,
        "meta_mean_motion_ddot": 0,
        "tle_line1": "1 66541U 25265AB  25342.25003472 -.01986294  00000+0 -29472-1 0  9996",
        "tle_line2": "2 66541  43.0007  80.2103 0001277 263.8519   7.0074 15.57925963  4276"
      },
      "geometry": {
        "type": "Point",
        "coordinates": [
          -143.34932960998444,
          31.273630690063325
        ]
      }
    },
    {
      "type": "Feature",
      "properties": {
        "norad_id": 66542,
        "name": "STARLINK-35833",
        "group": "last-30-days",
        "lat": 30.268946838609505,
        "lon": -141.455698656958,
        "alt_km": 395.96760099559924,
        "timestamp": "2025-12-08T17:43:03.632355+00:00",
        "meta_object_name": "STARLINK-35833",
        "meta_object_id": "2025-265AC",
        "meta_epoch": "2025-12-08T06:00:02.999808",
        "meta_mean_motion": 15.57931077,
        "meta_eccentricity": 0.00013481,
        "meta_inclination": 43.0004,
        "meta_ra_of_asc_node": 80.2054,
        "meta_arg_of_pericenter": 265.21,
        "meta_mean_anomaly": 7.5648,
        "meta_ephemeris_type": 0,
        "meta_classification_type": "U",
        "meta_norad_cat_id": 66542,
        "meta_element_set_no": 999,
        "meta_rev_at_epoch": 427,
        "meta_bstar": -0.029629661,
        "meta_mean_motion_dot": -0.01995978,
        "meta_mean_motion_ddot": 0,
        "tle_line1": "1 66542U 25265AC  25342.25003472 -.01995978  00000+0 -29630-1 0  9992",
        "tle_line2": "2 66542  43.0004  80.2054 0001348 265.2100   7.5648 15.57931077  4275"
      },
      "geometry": {
        "type": "Point",
        "coordinates": [
          -141.455698656958,
          30.268946838609505
        ]
      }
    },
    {
      "type": "Feature",
      "properties": {
        "norad_id": 66543,
        "name": "STARLINK-35315",
        "group": "last-30-days",
        "lat": 29.236924042066843,
        "lon": -139.59943343447662,
        "alt_km": 396.1781106824137,
        "timestamp": "2025-12-08T17:43:03.632365+00:00",
        "meta_object_name": "STARLINK-35315",
        "meta_object_id": "2025-265AD",
        "meta_epoch": "2025-12-08T06:00:02.999808",
        "meta_mean_motion": 15.57932878,
        "meta_eccentricity": 0.00014047,
        "meta_inclination": 43.0006,
        "meta_ra_of_asc_node": 80.2004,
        "meta_arg_of_pericenter": 267.4143,
        "meta_mean_anomaly": 7.2761,
        "meta_ephemeris_type": 0,
        "meta_classification_type": "U",
        "meta_norad_cat_id": 66543,
        "meta_element_set_no": 999,
        "meta_rev_at_epoch": 416,
        "meta_bstar": -0.029680008,
        "meta_mean_motion_dot": -0.01999106,
        "meta_mean_motion_ddot": 0,
        "tle_line1": "1 66543U 25265AD  25342.25003472 -.01999106  00000+0 -29680-1 0  9995",
        "tle_line2": "2 66543  43.0006  80.2004 0001404 267.4143   7.2761 15.57932878  4168"
      },
      "geometry": {
        "type": "Point",
        "coordinates": [
          -139.59943343447662,
          29.236924042066843
        ]
      }
    },
    {
      "type": "Feature",
      "properties": {
        "norad_id": 66544,
        "name": "STARLINK-35728",
        "group": "last-30-days",
        "lat": 28.177794862001985,
        "lon": -137.77867580743816,
        "alt_km": 396.2685298140523,
        "timestamp": "2025-12-08T17:43:03.632400+00:00",
        "meta_object_name": "STARLINK-35728",
        "meta_object_id": "2025-265AE",
        "meta_epoch": "2025-12-08T06:00:02.999808",
        "meta_mean_motion": 15.57930009,
        "meta_eccentricity": 0.00013965,
        "meta_inclination": 43.0001,
        "meta_ra_of_asc_node": 80.1954,
        "meta_arg_of_pericenter": 265.2248,
        "meta_mean_anomaly": 11.3849,
        "meta_ephemeris_type": 0,
        "meta_classification_type": "U",
        "meta_norad_cat_id": 66544,
        "meta_element_set_no": 999,
        "meta_rev_at_epoch": 427,
        "meta_bstar": -0.029608658,
        "meta_mean_motion_dot": -0.01994704,
        "meta_mean_motion_ddot": 0,
        "tle_line1": "1 66544U 25265AE  25342.25003472 -.01994704  00000+0 -29609-1 0  9996",
        "tle_line2": "2 66544  43.0001  80.1954 0001396 265.2248  11.3849 15.57930009  4278"
      },
      "geometry": {
        "type": "Point",
        "coordinates": [
          -137.77867580743816,
          28.177794862001985
        ]
      }
    },
    {
      "type": "Feature",
      "properties": {
        "norad_id": 66545,
        "name": "SHIJIAN-30A",
        "group": "last-30-days",
        "lat": 15.606026145177974,
        "lon": 4.3140006867396385,
        "alt_km": 510.9621524683798,
        "timestamp": "2025-12-08T17:43:03.632412+00:00",
        "meta_object_name": "SHIJIAN-30A",
        "meta_object_id": "2025-266A",
        "meta_epoch": "2025-12-08T08:08:02.995584",
        "meta_mean_motion": 15.1551276,
        "meta_eccentricity": 0.00127993,
        "meta_inclination": 51.7996,
        "meta_ra_of_asc_node": 353.4787,
        "meta_arg_of_pericenter": 340.4731,
        "meta_mean_anomaly": 19.5754,
        "meta_ephemeris_type": 0,
        "meta_classification_type": "U",
        "meta_norad_cat_id": 66545,
        "meta_element_set_no": 999,
        "meta_rev_at_epoch": 291,
        "meta_bstar": 0.00067614531,
        "meta_mean_motion_dot": 0.00012707,
        "meta_mean_motion_ddot": 0,
        "tle_line1": "1 66545U 25266A   25342.33892356  .00012707  00000+0  67615-3 0  9996",
        "tle_line2": "2 66545  51.7996 353.4787 0012799 340.4731  19.5754 15.15512760  2918"
      },
      "geometry": {
        "type": "Point",
        "coordinates": [
          4.3140006867396385,
          15.606026145177974
        ]
      }
    },
    {
      "type": "Feature",
      "properties": {
        "norad_id": 66546,
        "name": "SHIJIAN-30B",
        "group": "last-30-days",
        "lat": 12.584914319739,
        "lon": 1.7388545684128554,
        "alt_km": 511.9120264333169,
        "timestamp": "2025-12-08T17:43:03.632422+00:00",
        "meta_object_name": "SHIJIAN-30B",
        "meta_object_id": "2025-266B",
        "meta_epoch": "2025-12-08T08:09:06.870240",
        "meta_mean_motion": 15.15601642,
        "meta_eccentricity": 0.00104646,
        "meta_inclination": 51.7978,
        "meta_ra_of_asc_node": 353.4808,
        "meta_arg_of_pericenter": 343.5769,
        "meta_mean_anomaly": 16.4867,
        "meta_ephemeris_type": 0,
        "meta_classification_type": "U",
        "meta_norad_cat_id": 66546,
        "meta_element_set_no": 999,
        "meta_rev_at_epoch": 291,
        "meta_bstar": 0.00078891908,
        "meta_mean_motion_dot": 0.00014912,
        "meta_mean_motion_ddot": 0,
        "tle_line1": "1 66546U 25266B   25342.33966285  .00014912  00000+0  78892-3 0  9999",
        "tle_line2": "2 66546  51.7978 353.4808 0010464 343.5769  16.4867 15.15601642  2914"
      },
      "geometry": {
        "type": "Point",
        "coordinates": [
          1.7388545684128554,
          12.584914319739
        ]
      }
    },
    {
      "type": "Feature",
      "properties": {
        "norad_id": 66547,
        "name": "SHIJIAN-30C",
        "group": "last-30-days",
        "lat": 9.713769684223692,
        "lon": -0.6311962758858545,
        "alt_km": 512.0715040123268,
        "timestamp": "2025-12-08T17:43:03.632435+00:00",
        "meta_object_name": "SHIJIAN-30C",
        "meta_object_id": "2025-266C",
        "meta_epoch": "2025-12-08T06:35:08.461536",
        "meta_mean_motion": 15.15611445,
        "meta_eccentricity": 0.00113845,
        "meta_inclination": 51.7987,
        "meta_ra_of_asc_node": 353.7954,
        "meta_arg_of_pericenter": 335.5971,
        "meta_mean_anomaly": 24.4466,
        "meta_ephemeris_type": 0,
        "meta_classification_type": "U",
        "meta_norad_cat_id": 66547,
        "meta_element_set_no": 999,
        "meta_rev_at_epoch": 290,
        "meta_bstar": 0.00068804431,
        "meta_mean_motion_dot": 0.00012968,
        "meta_mean_motion_ddot": 0,
        "tle_line1": "1 66547U 25266C   25342.27440349  .00012968  00000+0  68804-3 0  9992",
        "tle_line2": "2 66547  51.7987 353.7954 0011384 335.5971  24.4466 15.15611445  2903"
      },
      "geometry": {
        "type": "Point",
        "coordinates": [
          -0.6311962758858545,
          9.713769684223692
        ]
      }
    }
  ]
}